OBJECT_NAME,OBJECT_ID,EPOCH,MEAN_MOTION,ECCENTRICITY,INCLINATION,RA_OF_ASC_NODE,ARG_OF_PERICENTER,MEAN_ANOMALY,EPHEMERIS_TYPE,CLASSIFICATION_TYPE,NORAD_CAT_ID,ELEMENT_SET_NO,REV_AT_EPOCH,BSTAR,MEAN_MOTION_DOT,MEAN_MOTION_DDOT
ICEYE-X39,2024-149CG,2026-07-11T18:13:38.812800,15.00057313,.00070104,97.6781,269.4505,56.0311,304.1578,0,U,60546,999,10380,.20551291E-3,.2501E-4,0
UMBRA-10,2024-149CH,2026-07-11T18:42:29.978496,15.18785708,.00014713,97.6983,280.4472,169.7068,190.4196,0,U,60547,999,10446,.43622735E-3,.9005E-4,0
ICEYE-X33,2024-149CJ,2026-07-09T20:04:20.713440,15.00937312,.0001952,97.7345,269.8614,73.3938,286.7500,0,U,60548,999,10360,.25134873E-3,.3143E-4,0
ICEYE-X40,2024-149CK,2026-07-11T18:00:46.066752,14.98053462,.00038359,97.6797,268.8525,17.7554,342.3802,0,U,60549,999,10375,.1115321E-3,.1261E-4,0
SATELIOT_1,2024-149CL,2026-07-11T17:45:04.074336,14.98154644,.0006048,97.6733,268.2297,2.2336,357.8912,0,U,60550,999,10374,.91694869E-4,.1029E-4,0
BRO-14,2024-149CM,2026-07-11T16:08:15.761760,14.96229545,.00069891,97.6861,268.0100,27.4384,332.7206,0,U,60551,999,10365,.55478545E-4,.569E-5,0
SATELIOT_3,2024-149CN,2026-07-11T18:46:34.730688,14.98159770,.00054276,97.6824,269.0861,19.1624,340.9802,0,U,60552,999,10376,.56786601E-4,.615E-5,0
BRO-15,2024-149CP,2026-07-09T10:45:19.005696,14.96220766,.00085255,97.6798,265.4070,23.7668,336.3946,0,U,60553,999,10333,.69493641E-4,.727E-5,0
UM5-RIBAT,2024-149CQ,2026-07-11T17:39:04.383360,15.01209332,.00010781,97.6613,270.2033,11.1968,348.9280,0,U,60554,999,10387,.11632362E-3,.1433E-4,0
LASARSAT,2024-247Q,2026-07-11T04:32:50.416224,15.47861056,.00068751,44.9745,127.1862,135.1375,225.0072,0,U,62391,999,8703,.43320782E-3,.22765E-3,0
CROCUBE,2024-247T,2026-07-10T04:33:02.620224,15.49924104,.00069141,44.9700,129.7539,137.1599,222.9832,0,U,62394,999,8691,.58811806E-3,.33442E-3,0
TEVEL2-5,2025-052E,2026-07-11T15:36:54.361152,15.35297561,.00038771,97.3876,89.0343,60.2304,299.9325,0,U,63214,999,7386,.3270793E-3,.11136E-3,0
TEVEL2-6,2025-052F,2026-07-11T15:55:28.053696,15.35261289,.00038481,97.3879,89.0323,63.3190,296.8447,0,U,63215,999,7386,.32823927E-3,.11163E-3,0
TEVEL2-1,2025-052H,2026-07-11T16:49:52.822848,15.34696214,.00044973,97.3853,88.6646,67.0289,293.1429,0,U,63217,999,7385,.31099247E-3,.10384E-3,0
TEVEL2-3,2025-052J,2026-07-11T16:40:48.579744,15.34757646,.00042625,97.3859,88.6837,68.4805,291.6893,0,U,63218,999,7385,.3010029E-3,.10066E-3,0
TEVEL2-2,2025-052K,2026-07-11T16:50:05.939232,15.34706297,.00045235,97.3852,88.6678,67.8714,292.3009,0,U,63219,999,7385,.30397995E-3,.10151E-3,0
TEVEL2-9,2025-052AD,2026-07-11T15:29:54.901248,15.32659947,.00079425,97.3918,87.9332,66.4852,293.7224,0,U,63237,999,7377,.31581625E-3,.9894E-4,0
TEVEL2-8,2025-052AF,2026-07-11T16:48:01.545696,15.32332149,.00080555,97.3915,87.8685,67.3029,292.9064,0,U,63239,999,7377,.29863864E-3,.9255E-4,0
FORESAIL-1 PRIME,2025-276DS,2026-07-11T18:26:45.362112,15.18920146,.00031429,97.4195,265.5912,52.4628,307.6892,0,U,66778,999,3413,.13553548E-3,.2762E-4,0
